start=new Date('2022-03-25T00:00:00.000Z').valueOf();
sats=[{"CLASSIFICATION_TYPE":"U","PERIAPSIS":"569.756","OBJECT_TYPE":"PAYLOAD","ECCENTRICITY":"0.00033210","RA_OF_ASC_NODE":"339.5374","PERIOD":"96.107","ARG_OF_PERICENTER":"288.4162","INCLINATION":"70.0011","MEAN_MOTION":"14.98327888","LAUNCH_DATE":"2021-09-14","EPHEMERIS_TYPE":"0","COUNTRY_CODE":"US","MEAN_MOTION_DOT":"-0.00004654","RCS_SIZE":"LARGE","OBJECT_NAME":"STARLINK-3078","CENTER_NAME":"EARTH","SEMIMAJOR_AXIS":"6950.199","REV_AT_EPOCH":"3062","MEAN_MOTION_DDOT":"0.0000000000000","FILE":"3372897","GP_ID":"199595758","ELEMENT_SET_NO":"999","EPOCH":"2022-03-25T00:00:02.000160","TLE_LINE2":"2 49134  70.0011 339.5374 0003321 288.4162 271.2448 14.98327888 30623","TLE_LINE1":"1 49134U 21082E   22084.00002315 -.00004654  00000-0 -38255-3 0  9998","MEAN_ANOMALY":"271.2448","NORAD_CAT_ID":"49134","SITE":"AFWTR","APOAPSIS":"574.373","BSTAR":"-0.00038255000000","MEAN_ELEMENT_THEORY":"SGP4","OBJECT_ID":"2021-082E","REF_FRAME":"TEME","DECAY_DATE":null,"TIME_SYSTEM":"UTC"},{"FILE":"3372897","GP_ID":"199595760","REV_AT_EPOCH":"3021","MEAN_MOTION_DDOT":"0.0000000000000","EPOCH":"2022-03-25T00:00:02.000160","TLE_LINE1":"1 49135U 21082F   22084.00002315  .00078631  00000-0  65608-3 0  9995","TLE_LINE2":"2 49135  69.9993 307.5434 0003601 255.4719 111.5089 15.69682523 30216","ELEMENT_SET_NO":"999","APOAPSIS":"362.234","SITE":"AFWTR","MEAN_ANOMALY":"111.5089","NORAD_CAT_ID":"49135","TIME_SYSTEM":"UTC","DECAY_DATE":null,"OBJECT_ID":"2021-082F","MEAN_ELEMENT_THEORY":"SGP4","BSTAR":"0.00065608000000","REF_FRAME":"TEME","OBJECT_TYPE":"PAYLOAD","PERIAPSIS":"357.381","ECCENTRICITY":"0.00036010","RA_OF_ASC_NODE":"307.5434","PERIOD":"91.738","CLASSIFICATION_TYPE":"U","LAUNCH_DATE":"2021-09-14","COUNTRY_CODE":"US","EPHEMERIS_TYPE":"0","ARG_OF_PERICENTER":"255.4719","MEAN_MOTION":"15.69682523","INCLINATION":"69.9993","OBJECT_NAME":"STARLINK-3073","MEAN_MOTION_DOT":"0.00078631","RCS_SIZE":"LARGE","CENTER_NAME":"EARTH","SEMIMAJOR_AXIS":"6737.942"},{"CENTER_NAME":"EARTH","SEMIMAJOR_AXIS":"6955.250","RCS_SIZE":"LARGE","MEAN_MOTION_DOT":"0.00019940","OBJECT_NAME":"STARLINK-3084","ARG_OF_PERICENTER":"273.3619","MEAN_MOTION":"14.96696199","INCLINATION":"69.9996","LAUNCH_DATE":"2021-09-14","COUNTRY_CODE":"US","EPHEMERIS_TYPE":"0","CLASSIFICATION_TYPE":"U","ECCENTRICITY":"0.00031440","OBJECT_TYPE":"PAYLOAD","PERIAPSIS":"574.928","RA_OF_ASC_NODE":"318.5530","PERIOD":"96.212","MEAN_ELEMENT_THEORY":"SGP4","OBJECT_ID":"2021-082G","BSTAR":"0.00174600000000","REF_FRAME":"TEME","TIME_SYSTEM":"UTC","DECAY_DATE":null,"MEAN_ANOMALY":"286.6276","NORAD_CAT_ID":"49136","APOAPSIS":"579.302","SITE":"AFWTR","ELEMENT_SET_NO":"999","EPOCH":"2022-03-25T00:00:02.000160","TLE_LINE1":"1 49136U 21082G   22084.00002315  .00019940  00000-0  17460-2 0  9996","TLE_LINE2":"2 49136  69.9996 318.5530 0003144 273.3619 286.6276 14.96696199 29953","REV_AT_EPOCH":"2995","MEAN_MOTION_DDOT":"0.0000000000000","FILE":"3372897","GP_ID":"199595265"},{"RA_OF_ASC_NODE":"318.5816","PERIOD":"96.211","OBJECT_TYPE":"PAYLOAD","ECCENTRICITY":"0.00029260","PERIAPSIS":"575.049","CLASSIFICATION_TYPE":"U","COUNTRY_CODE":"US","EPHEMERIS_TYPE":"0","LAUNCH_DATE":"2021-09-14","INCLINATION":"69.9965","MEAN_MOTION":"14.96705996","ARG_OF_PERICENTER":"283.4802","OBJECT_NAME":"STARLINK-3055","MEAN_MOTION_DOT":"0.00032038","RCS_SIZE":"LARGE","SEMIMAJOR_AXIS":"6955.220","CENTER_NAME":"EARTH","GP_ID":"199595266","FILE":"3372898","MEAN_MOTION_DDOT":"0.0000000000000","REV_AT_EPOCH":"2994","TLE_LINE2":"2 49137  69.9965 318.5816 0002926 283.4802 294.5395 14.96705996 29945","TLE_LINE1":"1 49137U 21082H   22084.00002315  .00032038  00000-0  27950-2 0  9995","EPOCH":"2022-03-25T00:00:02.000160","ELEMENT_SET_NO":"999","APOAPSIS":"579.120","SITE":"AFWTR","NORAD_CAT_ID":"49137","MEAN_ANOMALY":"294.5395","DECAY_DATE":null,"TIME_SYSTEM":"UTC","REF_FRAME":"TEME","BSTAR":"0.00279500000000","MEAN_ELEMENT_THEORY":"SGP4","OBJECT_ID":"2021-082H"},{"BSTAR":"0.00114630000000","MEAN_ELEMENT_THEORY":"SGP4","OBJECT_ID":"2021-082J","REF_FRAME":"TEME","DECAY_DATE":null,"TIME_SYSTEM":"UTC","MEAN_ANOMALY":"307.4365","NORAD_CAT_ID":"49138","APOAPSIS":"574.172","SITE":"AFWTR","ELEMENT_SET_NO":"999","EPOCH":"2022-03-25T00:00:02.000160","TLE_LINE2":"2 49138  70.0017 339.5447 0003002 277.9491 307.4365 14.98320999 29420","TLE_LINE1":"1 49138U 21082J   22084.00002315  .00013608  00000-0  11463-2 0  9990","REV_AT_EPOCH":"2942","MEAN_MOTION_DDOT":"0.0000000000000","FILE":"3372888","GP_ID":"199595010","CENTER_NAME":"EARTH","SEMIMAJOR_AXIS":"6950.221","MEAN_MOTION_DOT":"0.00013608","RCS_SIZE":"LARGE","OBJECT_NAME":"STARLINK-3058","ARG_OF_PERICENTER":"277.9491","INCLINATION":"70.0017","MEAN_MOTION":"14.98320999","LAUNCH_DATE":"2021-09-14","COUNTRY_CODE":"US","EPHEMERIS_TYPE":"0","CLASSIFICATION_TYPE":"U","PERIAPSIS":"569.999","OBJECT_TYPE":"PAYLOAD","ECCENTRICITY":"0.00030020","RA_OF_ASC_NODE":"339.5447","PERIOD":"96.108"},{"ARG_OF_PERICENTER":"249.8079","INCLINATION":"70.0002","MEAN_MOTION":"15.69708311","LAUNCH_DATE":"2021-09-14","COUNTRY_CODE":"US","EPHEMERIS_TYPE":"0","CLASSIFICATION_TYPE":"U","PERIAPSIS":"357.364","OBJECT_TYPE":"PAYLOAD","ECCENTRICITY":"0.00035170","RA_OF_ASC_NODE":"307.5315","PERIOD":"91.737","CENTER_NAME":"EARTH","SEMIMAJOR_AXIS":"6737.869","MEAN_MOTION_DOT":"0.00073396","RCS_SIZE":"LARGE","OBJECT_NAME":"STARLINK-3057","ELEMENT_SET_NO":"999","EPOCH":"2022-03-25T00:00:02.000160","TLE_LINE2":"2 49139  70.0002 307.5315 0003517 249.8079 123.7634 15.69708311 30219","TLE_LINE1":"1 49139U 21082K   22084.00002315  .00073396  00000-0  61226-3 0  9994","REV_AT_EPOCH":"3021","MEAN_MOTION_DDOT":"0.0000000000000","FILE":"3372888","GP_ID":"199595134","BSTAR":"0.00061226000000","MEAN_ELEMENT_THEORY":"SGP4","OBJECT_ID":"2021-082K","REF_FRAME":"TEME","DECAY_DATE":null,"TIME_SYSTEM":"UTC","MEAN_ANOMALY":"123.7634","NORAD_CAT_ID":"49139","SITE":"AFWTR","APOAPSIS":"362.103"},{"OBJECT_NAME":"STARLINK-3118","RCS_SIZE":"LARGE","MEAN_MOTION_DOT":"-0.00019423","SEMIMAJOR_AXIS":"6737.770","CENTER_NAME":"EARTH","RA_OF_ASC_NODE":"307.5294","PERIOD":"91.735","OBJECT_TYPE":"PAYLOAD","PERIAPSIS":"357.272","ECCENTRICITY":"0.00035070","CLASSIFICATION_TYPE":"U","EPHEMERIS_TYPE":"0","COUNTRY_CODE":"US","LAUNCH_DATE":"2021-09-14","INCLINATION":"69.9994","MEAN_MOTION":"15.69742679","ARG_OF_PERICENTER":"254.8367","SITE":"AFWTR","APOAPSIS":"361.998","NORAD_CAT_ID":"49140","MEAN_ANOMALY":"125.1241","DECAY_DATE":null,"TIME_SYSTEM":"UTC","REF_FRAME":"TEME","BSTAR":"-0.00016134000000","MEAN_ELEMENT_THEORY":"SGP4","OBJECT_ID":"2021-082L","GP_ID":"199595140","FILE":"3372888","MEAN_MOTION_DDOT":"0.0000000000000","REV_AT_EPOCH":"3021","TLE_LINE2":"2 49140  69.9994 307.5294 0003507 254.8367 125.1241 15.69742679 30214","TLE_LINE1":"1 49140U 21082L   22084.00002315 -.00019423  00000-0 -16134-3 0  9997","EPOCH":"2022-03-25T00:00:02.000160","ELEMENT_SET_NO":"999"},{"CLASSIFICATION_TYPE":"U","RA_OF_ASC_NODE":"339.5450","PERIOD":"96.107","PERIAPSIS":"569.866","OBJECT_TYPE":"PAYLOAD","ECCENTRICITY":"0.00031460","INCLINATION":"70.0019","MEAN_MOTION":"14.98331596","ARG_OF_PERICENTER":"282.4432","EPHEMERIS_TYPE":"0","COUNTRY_CODE":"US","LAUNCH_DATE":"2021-09-14","RCS_SIZE":"LARGE","MEAN_MOTION_DOT":"0.00015657","OBJECT_NAME":"STARLINK-3093","SEMIMAJOR_AXIS":"6950.188","CENTER_NAME":"EARTH","MEAN_MOTION_DDOT":"0.0000000000000","REV_AT_EPOCH":"3062","GP_ID":"199595011","FILE":"3372888","ELEMENT_SET_NO":"999","TLE_LINE2":"2 49141  70.0019 339.5450 0003146 282.4432 328.6647 14.98331596 30622","TLE_LINE1":"1 49141U 21082M   22084.00002315  .00015657  00000-0  13170-2 0  9997","EPOCH":"2022-03-25T00:00:02.000160","NORAD_CAT_ID":"49141","MEAN_ANOMALY":"328.6647","SITE":"AFWTR","APOAPSIS":"574.239","REF_FRAME":"TEME","BSTAR":"0.00131700000000","OBJECT_ID":"2021-082M","MEAN_ELEMENT_THEORY":"SGP4","DECAY_DATE":null,"TIME_SYSTEM":"UTC"},{"ELEMENT_SET_NO":"999","EPOCH":"2022-03-25T00:00:02.000160","TLE_LINE2":"2 49142  70.0000 307.5207 0003538 249.9870 132.0712 15.69726925 30215","TLE_LINE1":"1 49142U 21082N   22084.00002315  .00073269  00000-0  61074-3 0  9998","REV_AT_EPOCH":"3021","MEAN_MOTION_DDOT":"0.0000000000000","FILE":"3372888","GP_ID":"199595144","BSTAR":"0.00061074000000","MEAN_ELEMENT_THEORY":"SGP4","OBJECT_ID":"2021-082N","REF_FRAME":"TEME","DECAY_DATE":null,"TIME_SYSTEM":"UTC","MEAN_ANOMALY":"132.0712","NORAD_CAT_ID":"49142","APOAPSIS":"362.064","SITE":"AFWTR","ARG_OF_PERICENTER":"249.9870","INCLINATION":"70.0000","MEAN_MOTION":"15.69726925","LAUNCH_DATE":"2021-09-14","EPHEMERIS_TYPE":"0","COUNTRY_CODE":"US","CLASSIFICATION_TYPE":"U","OBJECT_TYPE":"PAYLOAD","ECCENTRICITY":"0.00035380","PERIAPSIS":"357.296","RA_OF_ASC_NODE":"307.5207","PERIOD":"91.736","CENTER_NAME":"EARTH","SEMIMAJOR_AXIS":"6737.815","RCS_SIZE":"LARGE","MEAN_MOTION_DOT":"0.00073269","OBJECT_NAME":"STARLINK-3042"},{"REV_AT_EPOCH":"2994","MEAN_MOTION_DDOT":"0.0000000000000","FILE":"3372888","GP_ID":"199595015","ELEMENT_SET_NO":"999","EPOCH":"2022-03-25T00:00:02.000160","TLE_LINE1":"1 49143U 21082P   22084.00002315  .00032636  00000-0  28474-2 0  9998","TLE_LINE2":"2 49143  69.9964 318.5802 0002934 283.0036 320.9948 14.96696991 29942","MEAN_ANOMALY":"320.9948","NORAD_CAT_ID":"49143","SITE":"AFWTR","APOAPSIS":"579.153","MEAN_ELEMENT_THEORY":"SGP4","OBJECT_ID":"2021-082P","BSTAR":"0.00284740000000","REF_FRAME":"TEME","TIME_SYSTEM":"UTC","DECAY_DATE":null,"CLASSIFICATION_TYPE":"U","OBJECT_TYPE":"PAYLOAD","PERIAPSIS":"575.072","ECCENTRICITY":"0.00029340","PERIOD":"96.212","RA_OF_ASC_NODE":"318.5802","ARG_OF_PERICENTER":"283.0036","MEAN_MOTION":"14.96696991","INCLINATION":"69.9964","LAUNCH_DATE":"2021-09-14","COUNTRY_CODE":"US","EPHEMERIS_TYPE":"0","RCS_SIZE":"LARGE","MEAN_MOTION_DOT":"0.00032636","OBJECT_NAME":"STARLINK-3109","CENTER_NAME":"EARTH","SEMIMAJOR_AXIS":"6955.247"}];
